LANDSAT 9               
1 49260U 21088A   24110.80195871  .00001459  00000+0  33358-3 0  9990
2 49260  98.1900 181.4007 0001171  82.2522 277.8809 14.57144623136189
